ONEWEB-0456             
1 51646U 22012AA  26158.41684310  .00000596  00000+0  16709-2 0  9992
2 51646  87.8849  38.1987 0001703  76.9997 283.1320 13.10372312208060
ONEWEB-0457             
1 51647U 22012AB  26158.39345514 -.00000546  00000+0 -15993-2 0  9991
2 51647  87.8849  38.2216 0002017  92.1386 267.9972 13.10373995208069
ONEWEB-0458             
1 51648U 22012AC  26158.41520259 -.00000370  00000+0 -10969-2 0  9999
2 51648  87.8855  38.2047 0001874  76.2339 283.8997 13.10389661208027
ONEWEB-0461             
1 51649U 22012AD  26158.28144380  .00000012  00000+0 -29621-5 0  9992
2 51649  87.9151   7.8270 0001877  90.6777 269.4570 13.17648095212586
ONEWEB-0463             
1 51650U 22012AE  26157.65540434 -.00000130  00000+0 -36802-3 0  9993
2 51650  87.9141   7.9751 0001893  92.4505 267.6843 13.17649029212287
ONEWEB-0464             
1 51651U 22012AF  26158.41187934  .00000413  00000+0  11480-2 0  9997
2 51651  87.8832  38.2278 0001770  74.4919 285.6404 13.10374673208043
ONEWEB-0468             
1 51652U 22012AG  26158.41852403  .00000570  00000+0  15978-2 0  9998
2 51652  87.8814  38.2205 0001702  74.2852 285.8463 13.10373335208022
ONEWEB-0473             
1 51653U 22012AH  26158.40356972 -.00000047  00000+0 -17157-3 0  9991
2 51653  87.8845  38.2250 0001844  77.9236 282.2098 13.10375425208027
ONEWEB-0474             
1 51654U 22012AJ  26158.39525922 -.00000413  00000+0 -12192-2 0  9993
2 51654  87.8852  38.2103 0001740  71.4992 288.6324 13.10374146208016
ONEWEB-0475             
1 51655U 22012AK  26158.27470385 -.00000042  00000+0 -14196-3 0  9998
2 51655  87.9143   7.8447 0001799  65.9336 294.1984 13.17648538212383
ONEWEB-0490             
1 54113U 22138A   26158.12676237  .00000055  00000+0  10501-3 0  9995
2 54113  87.9170 306.9710 0001636  96.5569 263.5750 13.19724288175501
ONEWEB-0492             
1 54114U 22138B   26158.15204777 -.00000051  00000+0 -15927-3 0  9990
2 54114  87.9165 306.9686 0001677 103.6004 256.5315 13.19725619175516
ONEWEB-0495             
1 54115U 22138C   26158.12992086  .00000068  00000+0  13863-3 0  9998
2 54115  87.9162 306.9753 0001175  92.1005 268.0262 13.19724792175492
ONEWEB-0497             
1 54116U 22138D   26158.29419036  .00000190  00000+0  44210-3 0  9992
2 54116  87.9167 306.9343 0001775  97.8121 262.3213 13.19723970175502
ONEWEB-0499             
1 54117U 22138E   26158.12598641 -.00000020  00000+0 -83061-4 0  9997
2 54117  87.9162 306.9772 0001641  91.3102 268.8219 13.19726032175491
ONEWEB-0500             
1 54118U 22138F   26158.12833618  .00000094  00000+0  20234-3 0  9995
2 54118  87.9174 306.9702 0001901  99.3973 260.7375 13.19723503175507
ONEWEB-0501             
1 54119U 22138G   26158.15833939  .00000478  00000+0  11608-2 0  9995
2 54119  87.9167 306.9640 0001491  93.1370 266.9933 13.19719445175483
ONEWEB-0502             
1 54120U 22138H   26158.14412464  .00000064  00000+0  12851-3 0  9995
2 54120  87.9172 306.9557 0001676  90.2792 269.8532 13.19723248175505
ONEWEB-0503             
1 54121U 22138J   26157.67817800  .00000110  00000+0  24179-3 0  9994
2 54121  87.9174 307.0542 0002006  90.3810 269.7553 13.19723929175434
ONEWEB-0504             
1 54122U 22138K   26158.12044939 -.00000021  00000+0 -85892-4 0  9994
2 54122  87.9171 306.9708 0001697  90.1751 269.9576 13.19724329175501
ONEWEB-0505             
1 54123U 22138L   26158.11729910  .00000064  00000+0  12671-3 0  9992
2 54123  87.9171 306.9726 0001438  88.0438 272.0860 13.19725325175488
ONEWEB-0506             
1 54124U 22138M   26158.16781816 -.00002541  00000+0 -63812-2 0  9997
2 54124  87.9171 306.9595 0001797  92.4257 267.7082 13.19734266175480
ONEWEB-0507             
1 54125U 22138N   26158.11255128  .00000006  00000+0 -16477-4 0  9995
2 54125  87.9161 306.9832 0001573  96.0767 264.0545 13.19724752175520
ONEWEB-0508             
1 54126U 22138P   26158.10937801  .00000059  00000+0  11513-3 0  9992
2 54126  87.9162 306.9836 0001352  99.4385 260.6900 13.19723996175508
ONEWEB-0509             
1 54127U 22138Q   26158.15990359 -.00003692  00000+0 -92554-2 0  9996
2 54127  87.9168 306.9616 0001738  96.4053 263.7278 13.19741404175481
ONEWEB-0510             
1 54128U 22138R   26157.60183152  .00000081  00000+0  16619-3 0  9997
2 54128  87.9193 276.5457 0002407 100.2117 259.9288 13.20773012177880
ONEWEB-0511             
1 54129U 22138S   26158.15678446  .00000003  00000+0 -24652-4 0  9996
2 54129  87.9169 306.9663 0001846  87.4235 272.7109 13.19725667175518
ONEWEB-0512             
1 54130U 22138T   26158.14887289  .00000039  00000+0  66138-4 0  9997
2 54130  87.9161 306.9734 0001602  88.1853 271.9463 13.19723495175482
ONEWEB-0513             
1 54131U 22138U   26158.15861984  .00000017  00000+0  10548-4 0  9993
2 54131  87.9171 306.9168 0001531  64.8698 295.2594 13.20268538175392
ONEWEB-0514             
1 54132U 22138V   26158.16466760 -.00000151  00000+0 -40926-3 0  9991
2 54132  87.9168 306.9629 0001964  97.2253 262.9103 13.19725288175506
ONEWEB-0515             
1 54133U 22138W   26158.04288480  .00000028  00000+0  36410-4 0  9995
2 54133  87.9215 276.4517 0002531 117.8545 242.2845 13.20769517177962
ONEWEB-0516             
1 54134U 22138X   26158.13939197  .00000209  00000+0  48908-3 0  9999
2 54134  87.9159 306.9753 0001725 100.0096 260.1232 13.19724806175507
ONEWEB-0517             
1 54135U 22138Y   26158.11885918 -.00000159  00000+0 -42904-3 0  9995
2 54135  87.9166 306.9708 0002046  89.6459 270.4908 13.19724916175504
ONEWEB-0518             
1 54136U 22138Z   26158.13785022  .00000091  00000+0  19442-3 0  9997
2 54136  87.9164 306.9777 0001739 102.3408 257.7920 13.19726780175507
ONEWEB-0519             
1 54137U 22138AA  26158.16310729  .00000011  00000+0 -39085-5 0  9999
2 54137  87.9173 306.9627 0001963  91.9561 268.1797 13.19726197175515
ONEWEB-0520             
1 54138U 22138AB  26158.12202661  .00000055  00000+0  10391-3 0  9995
2 54138  87.9168 306.9707 0001551  94.9812 265.1498 13.19724741175499
ONEWEB-0521             
1 54139U 22138AC  26158.15519255  .00000068  00000+0  13766-3 0  9992
2 54139  87.9175 306.9532 0002009  92.5304 267.6058 13.19725028175446
ONEWEB-0522             
1 54140U 22138AD  26158.13466029  .00000046  00000+0  82572-4 0  9990
2 54140  87.9172 306.9597 0001716  94.4043 265.7286 13.19723753175480
ONEWEB-0523             
1 54141U 22138AE  26158.02941984  .00000045  00000+0  79339-4 0  9993
2 54141  87.9190 276.4644 0002733 105.9353 254.2082 13.20770595177967
ONEWEB-0524             
1 54142U 22138AF  26158.09507970 -.00000015  00000+0 -68991-4 0  9995
2 54142  87.9192 276.4487 0002274 122.9417 237.1935 13.20770345177976
ONEWEB-0525             
1 54143U 22138AG  26158.15360992  .00000039  00000+0  64026-4 0  9993
2 54143  87.9170 306.9639 0001440  98.4163 261.7133 13.19724527175509
ONEWEB-0526             
1 54144U 22138AH  26158.11097027 -.00000250  00000+0 -65741-3 0  9997
2 54144  87.9171 306.9723 0001684  99.8108 260.3215 13.19727118175470
ONEWEB-0529             
1 54145U 22138AJ  26158.11411865  .00000008  00000+0 -11844-4 0  9994
2 54145  87.9161 306.9815 0001555  96.9232 263.2078 13.19724512175491
ONEWEB-0531             
1 54146U 22138AK  26158.08162455 -.00000105  00000+0 -29091-3 0  9990
2 54146  87.9190 276.4494 0002712 111.7763 248.3659 13.20771814177972
ONEWEB-0535             
1 54147U 22138AL  26157.69238894  .00000078  00000+0  16261-3 0  9990
2 54147  87.9169 307.0494 0002160  97.6075 262.5304 13.19724336175456
ONEWEB-0536             
1 54148U 22138AM  26158.06814260  .00000423  00000+0  10083-2 0  9999
2 54148  87.9179 276.4757 0002729 116.2477 243.8937 13.20768655177960
ONEWEB-0527             
1 54642U 22166A   26158.50004630 -.00002478  00000+0 -61780-2 0  9994
2 54642  87.9244 245.9237 0002009 102.2460 329.1503 13.20215092  5244
ONEWEB-0528             
1 54643U 22166B   26158.48788206  .00000146  00000+0  32176-3 0  9996
2 54643  87.9256 245.9291 0001805 101.3336 258.8000 13.21669200170263
ONEWEB-0539             
1 54644U 22166C   26158.22340906  .00000131  00000+0  28649-3 0  9994
2 54644  87.9263 245.9530 0002090  93.4115 266.7258 13.21827137170225
ONEWEB-0540             
1 54645U 22166D   26158.23027225  .00000071  00000+0  13957-3 0  9991
2 54645  87.9257 245.9826 0002060  96.2727 263.8641 13.21826844170211
ONEWEB-0542             
1 54646U 22166E   26158.23349792  .00000029  00000+0  38692-4 0  9995
2 54646  87.9265 245.9494 0002104  91.3386 268.7989 13.21827354170225
ONEWEB-0545             
1 54647U 22166F   26158.50095653  .00000108  00000+0  22890-3 0  9990
2 54647  87.9252 245.9091 0002297  88.0541 272.0856 13.21827537170228
ONEWEB-0580             
1 54648U 22166G   26158.47572071 -.00000006  00000+0 -46146-4 0  9991
2 54648  87.9258 245.9136 0002346  92.8451 267.2951 13.21827612170263
ONEWEB-0582             
1 54649U 22166H   26158.51778433  .00000004  00000+0 -20629-4 0  9992
2 54649  87.9263 245.8981 0002250  89.8016 270.3376 13.21826413170246
ONEWEB-0583             
1 54650U 22166J   26158.22676926  .00000046  00000+0  78776-4 0  9997
2 54650  87.9252 245.9790 0002007  95.7035 264.4327 13.21827297170210
ONEWEB-0584             
1 54651U 22166K   26158.47403233  .00000030  00000+0  40579-4 0  9997
2 54651  87.9254 245.9156 0002139  97.8344 262.3032 13.21825184170236
ONEWEB-0585             
1 54652U 22166L   26158.19481411  .00000140  00000+0  30700-3 0  9997
2 54652  87.9248 245.9574 0001969 103.5931 256.5422 13.21826391170207
ONEWEB-0586             
1 54653U 22166M   26158.51102839 -.00000144  00000+0 -38011-3 0  9997
2 54653  87.9257 245.9206 0002052  94.7731 265.3638 13.21824652170242
ONEWEB-0587             
1 54654U 22166N   26158.52112205  .00000053  00000+0  95806-4 0  9990
2 54654  87.9269 245.8912 0001834 109.0345 251.0988 13.21828288170404
